[{"OBJECT_NAME":"STARLINK-2220","OBJECT_ID":"2021-041T","EPOCH":"2026-03-09T11:39:58.315104","MEAN_MOTION":15.06409264,"ECCENTRICITY":0.00017442,"INCLINATION":53.0558,"RA_OF_ASC_NODE":142.5323,"ARG_OF_PERICENTER":101.5349,"MEAN_ANOMALY":258.5836,"EPHEMERIS_TYPE":0,"CLASSIFICATION_TYPE":"U","NORAD_CAT_ID":48570,"ELEMENT_SET_NO":999,"REV_AT_EPOCH":26502,"BSTAR":0.00039376047,"MEAN_MOTION_DOT":5.59e-5,"MEAN_MOTION_DDOT":0},{"OBJECT_NAME":"COSMOS 2251 DEB","OBJECT_ID":"1993-036BYJ","EPOCH":"2026-02-27T08:25:05.077344","MEAN_MOTION":15.02778291,"ECCENTRICITY":0.0017194,"INCLINATION":74.0208,"RA_OF_ASC_NODE":84.7822,"ARG_OF_PERICENTER":181.9976,"MEAN_ANOMALY":194.0424,"EPHEMERIS_TYPE":0,"CLASSIFICATION_TYPE":"U","NORAD_CAT_ID":47116,"ELEMENT_SET_NO":999,"REV_AT_EPOCH":60660,"BSTAR":0.0017596726,"MEAN_MOTION_DOT":0.00023658,"MEAN_MOTION_DDOT":0}]
